TEVEL2-2                
1 63219U 25052K   26068.64848259  .00020339  00000+0  69428-3 0  9991
2 63219  97.3987 324.7700 0004693 105.7930 254.3828 15.30343745 54855
STARLINK-36180          
1 67114U 25299N   26068.29547513  .00026728  00000+0  95248-3 0  9999
2 67114  42.9978 171.4194 0001102 319.3332  40.7437 15.28423882 13052
